IRIDIUM 36              
1 24967U 97056C   24231.65885918  .00001218  00000+0  40482-3 0  9999
2 24967  86.3965 300.0689 0002060  93.0879 267.0554 14.36965865408764
IRIDIUM 39              
1 25042U 97069D   24231.82176992  .00002531  00000+0  67277-3 0  9992
2 25042  86.3968 340.7462 0016598 231.3604 128.6115 14.48201163405181
IRIDIUM 38              
1 25043U 97069E   24231.85568386  .00001741  00000+0  57610-3 0  9990
2 25043  86.4003   0.3287 0003004  55.1095 305.0384 14.37429047402515
IRIDIUM 42              
1 25077U 97077A   24231.91332300  .00001620  00000+0  55464-3 0  9999
2 25077  86.4002   6.0972 0002483  77.7329 282.4146 14.35712889397812
IRIDIUM 44              
1 25078U 97077B   24231.84537610  .00001511  00000+0  47818-3 0  9996
2 25078  86.4005 348.8724 0001023  32.7161 327.4101 14.39561601400197
IRIDIUM 45              
1 25104U 97082A   24231.94343328  .00039960  00000+0  20939-2 0  9997
2 25104  86.3743 192.7502 0152326  12.2668 348.2207 15.06048869406299
IRIDIUM 24              
1 25105U 97082B   24231.92542035  .00001845  00000+0  56379-3 0  9991
2 25105  86.3931 208.3156 0011654   8.4808 351.6586 14.41356362399667
IRIDIUM 51              
1 25262U 98018A   24231.88610644  .00042711  00000+0  18269-2 0  9994
2 25262  86.3956 202.3833 0133092 312.0916  46.9065 15.14878059400896
